start=new Date('2021-12-22T00:00:00.000Z').valueOf();
sats=[{"COUNTRY_CODE":"US","SEMIMAJOR_AXIS":"6823.110","FILE":"3246784","CLASSIFICATION_TYPE":"U","ECCENTRICITY":"0.00016840","ELEMENT_SET_NO":"999","EPHEMERIS_TYPE":"0","MEAN_MOTION":"15.40384600","OBJECT_ID":"2021-115N","PERIAPSIS":"443.826","NORAD_CAT_ID":"49736","MEAN_ELEMENT_THEORY":"SGP4","EPOCH":"2021-12-21T22:00:00.999936","GP_ID":"192180835","ARG_OF_PERICENTER":"48.9696","MEAN_ANOMALY":"72.7466","TLE_LINE2":"2 49736  53.2140 227.8748 0001684  48.9696  72.7466 15.40384600  3382","SITE":"AFETR","DECAY_DATE":null,"REV_AT_EPOCH":"338","OBJECT_NAME":"STARLINK-3148","TLE_LINE1":"1 49736U 21115N   21355.91667824  .00014460  00000-0  36165-3 0  9997","PERIOD":"93.483","MEAN_MOTION_DDOT":"0.0000000000000","REF_FRAME":"TEME","OBJECT_TYPE":"PAYLOAD","INCLINATION":"53.2140","BSTAR":"0.00036165000000","LAUNCH_DATE":"2021-12-02","TIME_SYSTEM":"UTC","RCS_SIZE":"LARGE","CENTER_NAME":"EARTH","RA_OF_ASC_NODE":"227.8748","APOAPSIS":"446.124","MEAN_MOTION_DOT":"0.00014460"},{"DECAY_DATE":null,"REV_AT_EPOCH":"338","OBJECT_NAME":"STARLINK-3225","TLE_LINE1":"1 49737U 21115P   21355.91667824  .00013977  00000-0  34986-3 0  9999","PERIOD":"93.483","MEAN_MOTION_DDOT":"0.0000000000000","REF_FRAME":"TEME","OBJECT_TYPE":"PAYLOAD","INCLINATION":"53.2143","BSTAR":"0.00034986000000","LAUNCH_DATE":"2021-12-02","TIME_SYSTEM":"UTC","RCS_SIZE":"LARGE","CENTER_NAME":"EARTH","RA_OF_ASC_NODE":"227.8712","APOAPSIS":"446.015","MEAN_MOTION_DOT":"0.00013977","COUNTRY_CODE":"US","SEMIMAJOR_AXIS":"6823.094","FILE":"3246784","CLASSIFICATION_TYPE":"U","ECCENTRICITY":"0.00015480","ELEMENT_SET_NO":"999","EPHEMERIS_TYPE":"0","MEAN_MOTION":"15.40390178","OBJECT_ID":"2021-115P","PERIAPSIS":"443.903","NORAD_CAT_ID":"49737","MEAN_ELEMENT_THEORY":"SGP4","EPOCH":"2021-12-21T22:00:00.999936","GP_ID":"192181048","ARG_OF_PERICENTER":"59.6107","MEAN_ANOMALY":"64.2013","TLE_LINE2":"2 49737  53.2143 227.8712 0001548  59.6107  64.2013 15.40390178  3383","SITE":"AFETR"},{"MEAN_ELEMENT_THEORY":"SGP4","EPOCH":"2021-12-21T22:00:00.999936","ARG_OF_PERICENTER":"48.0783","GP_ID":"192179561","MEAN_ANOMALY":"72.5877","SITE":"AFETR","TLE_LINE2":"2 49738  53.2137 227.8764 0001549  48.0783  72.5877 15.40380494  3387","ELEMENT_SET_NO":"999","EPHEMERIS_TYPE":"0","OBJECT_ID":"2021-115Q","MEAN_MOTION":"15.40380494","NORAD_CAT_ID":"49738","PERIAPSIS":"443.931","FILE":"3246784","SEMIMAJOR_AXIS":"6823.122","CLASSIFICATION_TYPE":"U","ECCENTRICITY":"0.00015490","COUNTRY_CODE":"US","RCS_SIZE":"LARGE","RA_OF_ASC_NODE":"227.8764","CENTER_NAME":"EARTH","APOAPSIS":"446.044","MEAN_MOTION_DOT":"0.00014628","BSTAR":"0.00036580000000","INCLINATION":"53.2137","TIME_SYSTEM":"UTC","LAUNCH_DATE":"2021-12-02","TLE_LINE1":"1 49738U 21115Q   21355.91667824  .00014628  00000-0  36580-3 0  9996","MEAN_MOTION_DDOT":"0.0000000000000","PERIOD":"93.483","OBJECT_TYPE":"PAYLOAD","REF_FRAME":"TEME","DECAY_DATE":null,"OBJECT_NAME":"STARLINK-3143","REV_AT_EPOCH":"338"},{"EPHEMERIS_TYPE":"0","ELEMENT_SET_NO":"999","NORAD_CAT_ID":"49739","PERIAPSIS":"479.291","OBJECT_ID":"2021-115R","MEAN_MOTION":"15.28504439","ARG_OF_PERICENTER":"58.9434","GP_ID":"192179774","EPOCH":"2021-12-21T22:00:00.999936","MEAN_ELEMENT_THEORY":"SGP4","TLE_LINE2":"2 49739  53.2172 228.1019 0001448  58.9434 239.4602 15.28504439  3388","SITE":"AFETR","MEAN_ANOMALY":"239.4602","COUNTRY_CODE":"US","CLASSIFICATION_TYPE":"U","FILE":"3246784","SEMIMAJOR_AXIS":"6858.419","ECCENTRICITY":"0.00014480","TIME_SYSTEM":"UTC","LAUNCH_DATE":"2021-12-02","BSTAR":"-0.02523600000000","INCLINATION":"53.2172","RA_OF_ASC_NODE":"228.1019","CENTER_NAME":"EARTH","RCS_SIZE":"LARGE","MEAN_MOTION_DOT":"-0.00658753","APOAPSIS":"481.277","DECAY_DATE":null,"OBJECT_NAME":"STARLINK-3155","REV_AT_EPOCH":"338","MEAN_MOTION_DDOT":"0.0000000000000","PERIOD":"94.210","TLE_LINE1":"1 49739U 21115R   21355.91667824 -.00658753  00000-0 -25236-1 0  9996","OBJECT_TYPE":"PAYLOAD","REF_FRAME":"TEME"},{"COUNTRY_CODE":"US","SEMIMAJOR_AXIS":"6823.068","FILE":"3246784","CLASSIFICATION_TYPE":"U","ECCENTRICITY":"0.00016350","ELEMENT_SET_NO":"999","EPHEMERIS_TYPE":"0","MEAN_MOTION":"15.40399103","OBJECT_ID":"2021-115S","PERIAPSIS":"443.817","NORAD_CAT_ID":"49740","EPOCH":"2021-12-21T22:00:00.999936","MEAN_ELEMENT_THEORY":"SGP4","GP_ID":"192180412","ARG_OF_PERICENTER":"42.3707","MEAN_ANOMALY":"75.1412","SITE":"AFETR","TLE_LINE2":"2 49740  53.2138 227.8825 0001635  42.3707  75.1412 15.40399103  3389","DECAY_DATE":null,"REV_AT_EPOCH":"338","OBJECT_NAME":"STARLINK-3226","TLE_LINE1":"1 49740U 21115S   21355.91667824  .00014376  00000-0  35946-3 0  9994","PERIOD":"93.482","MEAN_MOTION_DDOT":"0.0000000000000","REF_FRAME":"TEME","OBJECT_TYPE":"PAYLOAD","INCLINATION":"53.2138","BSTAR":"0.00035946000000","LAUNCH_DATE":"2021-12-02","TIME_SYSTEM":"UTC","RCS_SIZE":"LARGE","CENTER_NAME":"EARTH","RA_OF_ASC_NODE":"227.8825","APOAPSIS":"446.048","MEAN_MOTION_DOT":"0.00014376"},{"DECAY_DATE":null,"REV_AT_EPOCH":"338","OBJECT_NAME":"STARLINK-3244","TLE_LINE1":"1 49741U 21115T   21355.91667824  .00013622  00000-0  34136-3 0  9998","PERIOD":"93.483","MEAN_MOTION_DDOT":"0.0000000000000","REF_FRAME":"TEME","OBJECT_TYPE":"PAYLOAD","INCLINATION":"53.2141","BSTAR":"0.00034136000000","LAUNCH_DATE":"2021-12-02","TIME_SYSTEM":"UTC","RCS_SIZE":"LARGE","CENTER_NAME":"EARTH","RA_OF_ASC_NODE":"227.8792","APOAPSIS":"446.135","MEAN_MOTION_DOT":"0.00013622","COUNTRY_CODE":"US","SEMIMAJOR_AXIS":"6823.122","FILE":"3246784","CLASSIFICATION_TYPE":"U","ECCENTRICITY":"0.00016820","ELEMENT_SET_NO":"999","EPHEMERIS_TYPE":"0","MEAN_MOTION":"15.40380533","OBJECT_ID":"2021-115T","PERIAPSIS":"443.840","NORAD_CAT_ID":"49741","MEAN_ELEMENT_THEORY":"SGP4","EPOCH":"2021-12-21T22:00:00.999936","GP_ID":"192180625","ARG_OF_PERICENTER":"43.8348","MEAN_ANOMALY":"75.7704","TLE_LINE2":"2 49741  53.2141 227.8792 0001682  43.8348  75.7704 15.40380533  3383","SITE":"AFETR"},{"MEAN_MOTION":"15.40397248","OBJECT_ID":"2021-115U","PERIAPSIS":"443.641","NORAD_CAT_ID":"49742","ELEMENT_SET_NO":"999","EPHEMERIS_TYPE":"0","MEAN_ANOMALY":"71.6495","TLE_LINE2":"2 49742  53.2136 227.8864 0001901  43.7586  71.6495 15.40397248  3388","SITE":"AFETR","MEAN_ELEMENT_THEORY":"SGP4","EPOCH":"2021-12-21T22:00:00.999936","GP_ID":"192179989","ARG_OF_PERICENTER":"43.7586","COUNTRY_CODE":"US","ECCENTRICITY":"0.00019010","SEMIMAJOR_AXIS":"6823.073","FILE":"3246784","CLASSIFICATION_TYPE":"U","INCLINATION":"53.2136","BSTAR":"0.00031489000000","LAUNCH_DATE":"2021-12-02","TIME_SYSTEM":"UTC","APOAPSIS":"446.235","MEAN_MOTION_DOT":"0.00012540","RCS_SIZE":"LARGE","CENTER_NAME":"EARTH","RA_OF_ASC_NODE":"227.8864","REV_AT_EPOCH":"338","OBJECT_NAME":"STARLINK-3202","DECAY_DATE":null,"REF_FRAME":"TEME","OBJECT_TYPE":"PAYLOAD","TLE_LINE1":"1 49742U 21115U   21355.91667824  .00012540  00000-0  31489-3 0  9995","PERIOD":"93.482","MEAN_MOTION_DDOT":"0.0000000000000"},{"ELEMENT_SET_NO":"999","EPHEMERIS_TYPE":"0","MEAN_MOTION":"15.40386709","OBJECT_ID":"2021-115V","PERIAPSIS":"443.766","NORAD_CAT_ID":"49743","MEAN_ELEMENT_THEORY":"SGP4","EPOCH":"2021-12-21T22:00:00.999936","GP_ID":"192180202","ARG_OF_PERICENTER":"42.7503","MEAN_ANOMALY":"75.8117","TLE_LINE2":"2 49743  53.2140 227.8808 0001763  42.7503  75.8117 15.40386709  3383","SITE":"AFETR","COUNTRY_CODE":"US","SEMIMAJOR_AXIS":"6823.104","FILE":"3246784","CLASSIFICATION_TYPE":"U","ECCENTRICITY":"0.00017630","INCLINATION":"53.2140","BSTAR":"0.00033876000000","LAUNCH_DATE":"2021-12-02","TIME_SYSTEM":"UTC","RCS_SIZE":"LARGE","CENTER_NAME":"EARTH","RA_OF_ASC_NODE":"227.8808","APOAPSIS":"446.172","MEAN_MOTION_DOT":"0.00013518","DECAY_DATE":null,"REV_AT_EPOCH":"338","OBJECT_NAME":"STARLINK-3239","TLE_LINE1":"1 49743U 21115V   21355.91667824  .00013518  00000-0  33876-3 0  9994","PERIOD":"93.483","MEAN_MOTION_DDOT":"0.0000000000000","REF_FRAME":"TEME","OBJECT_TYPE":"PAYLOAD"},{"MEAN_MOTION_DOT":"0.00014707","APOAPSIS":"446.114","CENTER_NAME":"EARTH","RA_OF_ASC_NODE":"227.8904","RCS_SIZE":"LARGE","LAUNCH_DATE":"2021-12-02","TIME_SYSTEM":"UTC","INCLINATION":"53.2137","BSTAR":"0.00036735000000","REF_FRAME":"TEME","OBJECT_TYPE":"PAYLOAD","PERIOD":"93.482","MEAN_MOTION_DDOT":"0.0000000000000","TLE_LINE1":"1 49744U 21115W   21355.91667824  .00014707  00000-0  36735-3 0  9993","REV_AT_EPOCH":"338","OBJECT_NAME":"STARLINK-3231","DECAY_DATE":null,"SITE":"AFETR","TLE_LINE2":"2 49744  53.2137 227.8904 0001783  40.6886  72.6102 15.40410909  3389","MEAN_ANOMALY":"72.6102","GP_ID":"192180836","ARG_OF_PERICENTER":"40.6886","EPOCH":"2021-12-21T22:00:00.999936","MEAN_ELEMENT_THEORY":"SGP4","PERIAPSIS":"443.681","NORAD_CAT_ID":"49744","MEAN_MOTION":"15.40410909","OBJECT_ID":"2021-115W","EPHEMERIS_TYPE":"0","ELEMENT_SET_NO":"999","ECCENTRICITY":"0.00017830","CLASSIFICATION_TYPE":"U","SEMIMAJOR_AXIS":"6823.033","FILE":"3246784","COUNTRY_CODE":"US"},{"CENTER_NAME":"EARTH","RA_OF_ASC_NODE":"227.8850","RCS_SIZE":"LARGE","MEAN_MOTION_DOT":"0.00013740","APOAPSIS":"446.197","LAUNCH_DATE":"2021-12-02","TIME_SYSTEM":"UTC","INCLINATION":"53.2140","BSTAR":"0.00034406000000","PERIOD":"93.483","MEAN_MOTION_DDOT":"0.0000000000000","TLE_LINE1":"1 49745U 21115X   21355.91667824  .00013740  00000-0  34406-3 0  9993","REF_FRAME":"TEME","OBJECT_TYPE":"PAYLOAD","DECAY_DATE":null,"REV_AT_EPOCH":"338","OBJECT_NAME":"STARLINK-3241","GP_ID":"192181049","ARG_OF_PERICENTER":"41.8582","EPOCH":"2021-12-21T22:00:00.999936","MEAN_ELEMENT_THEORY":"SGP4","SITE":"AFETR","TLE_LINE2":"2 49745  53.2140 227.8850 0001830  41.8582  74.6092 15.40393694  3384","MEAN_ANOMALY":"74.6092","EPHEMERIS_TYPE":"0","ELEMENT_SET_NO":"999","PERIAPSIS":"443.700","NORAD_CAT_ID":"49745","MEAN_MOTION":"15.40393694","OBJECT_ID":"2021-115X","CLASSIFICATION_TYPE":"U","SEMIMAJOR_AXIS":"6823.084","FILE":"3246784","ECCENTRICITY":"0.00018300","COUNTRY_CODE":"US"}];
